{"type": "FeatureCollection", "features": [{"type": "Feature", "properties": {"norad_id": 22490, "name": "SCD 1", "group": "resource", "lat": 17.54516400582868, "lon": -16.90234516339807, "alt_km": 748.0181868415757, "timestamp": "2025-12-09T05:43:20.384046+00:00", "meta": {"OBJECT_NAME": "SCD 1", "OBJECT_ID": "1993-009B", "EPOCH": "2025-12-08T15:21:15.134400", "MEAN_MOTION": 14.45994939, "ECCENTRICITY": 0.0041725, "INCLINATION": 24.9705, "RA_OF_ASC_NODE": 303.9966, "ARG_OF_PERICENTER": 281.4311, "MEAN_ANOMALY": 241.0109, "EPHEMERIS_TYPE": 0, "CLASSIFICATION_TYPE": "U", "NORAD_CAT_ID": 22490, "ELEMENT_SET_NO": 999, "REV_AT_EPOCH": 73350, "BSTAR": 0.00019055, "MEAN_MOTION_DOT": 8.83e-06, "MEAN_MOTION_DDOT": 0}, "tle": {"line1": "1 22490U 93009B   25342.63975850  .00000883  00000+0  19055-3 0  9998", "line2": "2 22490  24.9705 303.9966 0041725 281.4311 241.0109 14.45994939733503"}}, "geometry": {"type": "Point", "coordinates": [-16.90234516339807, 17.54516400582868]}}, {"type": "Feature", "properties": {"norad_id": 25397, "name": "TECHSAT 1B (GO-32)", "group": "resource", "lat": -44.69754392911, "lon": 137.35592497353306, "alt_km": 818.7333687632108, "timestamp": "2025-12-09T05:43:20.384080+00:00", "meta": {"OBJECT_NAME": "TECHSAT 1B (GO-32)", "OBJECT_ID": "1998-043D", "EPOCH": "2025-12-08T20:14:18.110688", "MEAN_MOTION": 14.24375538, "ECCENTRICITY": 0.0002151, "INCLINATION": 98.9916, "RA_OF_ASC_NODE": 325.9655, "ARG_OF_PERICENTER": 63.4647, "MEAN_ANOMALY": 296.6751, "EPHEMERIS_TYPE": 0, "CLASSIFICATION_TYPE": "U", "NORAD_CAT_ID": 25397, "ELEMENT_SET_NO": 999, "REV_AT_EPOCH": 42423, "BSTAR": 0.0001104, "MEAN_MOTION_DOT": 2.09e-06, "MEAN_MOTION_DDOT": 0}, "tle": {"line1": "1 25397U 98043D   25342.84326517  .00000209  00000+0  11040-3 0  9991", "line2": "2 25397  98.9916 325.9655 0002151  63.4647 296.6751 14.24375538424237"}}, "geometry": {"type": "Point", "coordinates": [137.35592497353306, -44.69754392911]}}, {"type": "Feature", "properties": {"norad_id": 25504, "name": "SCD 2", "group": "resource", "lat": 24.861203940514468, "lon": -112.44549099720915, "alt_km": 746.5427965809413, "timestamp": "2025-12-09T05:43:20.384096+00:00", "meta": {"OBJECT_NAME": "SCD 2", "OBJECT_ID": "1998-060A", "EPOCH": "2025-12-08T19:29:38.578848", "MEAN_MOTION": 14.45420381, "ECCENTRICITY": 0.0016588, "INCLINATION": 24.9931, "RA_OF_ASC_NODE": 166.1145, "ARG_OF_PERICENTER": 271.5714, "MEAN_ANOMALY": 110.8865, "EPHEMERIS_TYPE": 0, "CLASSIFICATION_TYPE": "U", "NORAD_CAT_ID": 25504, "ELEMENT_SET_NO": 999, "REV_AT_EPOCH": 43275, "BSTAR": 0.00014202, "MEAN_MOTION_DOT": 6.91e-06, "MEAN_MOTION_DDOT": 0}, "tle": {"line1": "1 25504U 98060A   25342.81225207  .00000691  00000+0  14202-3 0  9999", "line2": "2 25504  24.9931 166.1145 0016588 271.5714 110.8865 14.45420381432757"}}, "geometry": {"type": "Point", "coordinates": [-112.44549099720915, 24.861203940514468]}}, {"type": "Feature", "properties": {"norad_id": 25757, "name": "DLR-TUBSAT", "group": "resource", "lat": 81.231673038819, "lon": -131.37390072668038, "alt_km": 714.1945914663957, "timestamp": "2025-12-09T05:43:20.384110+00:00", "meta": {"OBJECT_NAME": "DLR-TUBSAT", "OBJECT_ID": "1999-029B", "EPOCH": "2025-12-08T21:02:06.086112", "MEAN_MOTION": 14.52355651, "ECCENTRICITY": 0.0013683, "INCLINATION": 98.656, "RA_OF_ASC_NODE": 327.271, "ARG_OF_PERICENTER": 204.8736, "MEAN_ANOMALY": 155.18, "EPHEMERIS_TYPE": 0, "CLASSIFICATION_TYPE": "U", "NORAD_CAT_ID": 25757, "ELEMENT_SET_NO": 999, "REV_AT_EPOCH": 40562, "BSTAR": 8.921e-05, "MEAN_MOTION_DOT": 3.15e-06, "MEAN_MOTION_DDOT": 0}, "tle": {"line1": "1 25757U 99029B   25342.87645933  .00000315  00000+0  89210-4 0  9998", "line2": "2 25757  98.6560 327.2710 0013683 204.8736 155.1800 14.52355651405629"}}, "geometry": {"type": "Point", "coordinates": [-131.37390072668038, 81.231673038819]}}, {"type": "Feature", "properties": {"norad_id": 25994, "name": "TERRA", "group": "resource", "lat": 46.75457080166844, "lon": 26.47930401594481, "alt_km": 684.6469565927118, "timestamp": "2025-12-09T05:43:20.384123+00:00", "meta": {"OBJECT_NAME": "TERRA", "OBJECT_ID": "1999-068A", "EPOCH": "2025-12-08T20:03:01.970208", "MEAN_MOTION": 14.6094659, "ECCENTRICITY": 0.000353, "INCLINATION": 97.9753, "RA_OF_ASC_NODE": 34.6632, "ARG_OF_PERICENTER": 105.6119, "MEAN_ANOMALY": 343.6228, "EPHEMERIS_TYPE": 0, "CLASSIFICATION_TYPE": "U", "NORAD_CAT_ID": 25994, "ELEMENT_SET_NO": 999, "REV_AT_EPOCH": 38181, "BSTAR": 0.00021908, "MEAN_MOTION_DOT": 1.029e-05, "MEAN_MOTION_DDOT": 0}, "tle": {"line1": "1 25994U 99068A   25342.83543947  .00001029  00000+0  21908-3 0  9994", "line2": "2 25994  97.9753  34.6632 0003530 105.6119 343.6228 14.60946590381812"}}, "geometry": {"type": "Point", "coordinates": [26.47930401594481, 46.75457080166844]}}, {"type": "Feature", "properties": {"norad_id": 27004, "name": "MAROC-TUBSAT", "group": "resource", "lat": 78.16132121896786, "lon": 27.08658417779679, "alt_km": 1005.2688905430887, "timestamp": "2025-12-09T05:43:20.384135+00:00", "meta": {"OBJECT_NAME": "MAROC-TUBSAT", "OBJECT_ID": "2001-056D", "EPOCH": "2025-12-08T17:02:58.745760", "MEAN_MOTION": 13.70252601, "ECCENTRICITY": 0.0019086, "INCLINATION": 99.7912, "RA_OF_ASC_NODE": 151.0848, "ARG_OF_PERICENTER": 270.8578, "MEAN_ANOMALY": 102.4734, "EPHEMERIS_TYPE": 0, "CLASSIFICATION_TYPE": "U", "NORAD_CAT_ID": 27004, "ELEMENT_SET_NO": 999, "REV_AT_EPOCH": 20010, "BSTAR": 4.4503e-05, "MEAN_MOTION_DOT": -7e-08, "MEAN_MOTION_DDOT": 0}, "tle": {"line1": "1 27004U 01056D   25342.71040215 -.00000007  00000+0  44503-4 0  9998", "line2": "2 27004  99.7912 151.0848 0019086 270.8578 102.4734 13.70252601200101"}}, "geometry": {"type": "Point", "coordinates": [27.08658417779679, 78.16132121896786]}}, {"type": "Feature", "properties": {"norad_id": 27424, "name": "AQUA", "group": "resource", "lat": -81.53789813071032, "lon": 27.572751277360585, "alt_km": 695.3324420529334, "timestamp": "2025-12-09T05:43:20.384147+00:00", "meta": {"OBJECT_NAME": "AQUA", "OBJECT_ID": "2002-022A", "EPOCH": "2025-12-08T20:24:34.597152", "MEAN_MOTION": 14.6179633, "ECCENTRICITY": 9.42e-05, "INCLINATION": 98.4032, "RA_OF_ASC_NODE": 303.6664, "ARG_OF_PERICENTER": 113.9887, "MEAN_ANOMALY": 276.1729, "EPHEMERIS_TYPE": 0, "CLASSIFICATION_TYPE": "U", "NORAD_CAT_ID": 27424, "ELEMENT_SET_NO": 999, "REV_AT_EPOCH": 25546, "BSTAR": 0.0004457, "MEAN_MOTION_DOT": 2.176e-05, "MEAN_MOTION_DDOT": 0}, "tle": {"line1": "1 27424U 02022A   25342.85040043  .00002176  00000+0  44570-3 0  9993", "line2": "2 27424  98.4032 303.6664 0000942 113.9887 276.1729 14.61796330255463"}}, "geometry": {"type": "Point", "coordinates": [27.572751277360585, -81.53789813071032]}}, {"type": "Feature", "properties": {"norad_id": 28051, "name": "IRS-P6 (RESOURCESAT-1)", "group": "resource", "lat": 78.12266190062485, "lon": -112.79096114531563, "alt_km": 765.9954969482451, "timestamp": "2025-12-09T05:43:20.384159+00:00", "meta": {"OBJECT_NAME": "IRS-P6 (RESOURCESAT-1)", "OBJECT_ID": "2003-046A", "EPOCH": "2025-12-08T21:08:38.051808", "MEAN_MOTION": 14.36071867, "ECCENTRICITY": 0.0063886, "INCLINATION": 98.2178, "RA_OF_ASC_NODE": 23.4665, "ARG_OF_PERICENTER": 192.2842, "MEAN_ANOMALY": 220.2178, "EPHEMERIS_TYPE": 0, "CLASSIFICATION_TYPE": "U", "NORAD_CAT_ID": 28051, "ELEMENT_SET_NO": 999, "REV_AT_EPOCH": 15321, "BSTAR": 9.8639e-05, "MEAN_MOTION_DOT": 2.53e-06, "MEAN_MOTION_DDOT": 0}, "tle": {"line1": "1 28051U 03046A   25342.88099597  .00000253  00000+0  98639-4 0  9998", "line2": "2 28051  98.2178  23.4665 0063886 192.2842 220.2178 14.36071867153215"}}, "geometry": {"type": "Point", "coordinates": [-112.79096114531563, 78.12266190062485]}}, {"type": "Feature", "properties": {"norad_id": 28220, "name": "SHIYAN-1 (SY-1)", "group": "resource", "lat": -73.08102265283335, "lon": -162.56608743904928, "alt_km": 488.6903760207588, "timestamp": "2025-12-09T05:43:20.384170+00:00", "meta": {"OBJECT_NAME": "SHIYAN-1 (SY-1)", "OBJECT_ID": "2004-012A", "EPOCH": "2025-12-08T17:36:27.273600", "MEAN_MOTION": 15.27982082, "ECCENTRICITY": 0.0005898, "INCLINATION": 97.8934, "RA_OF_ASC_NODE": 44.0358, "ARG_OF_PERICENTER": 340.8993, "MEAN_ANOMALY": 19.2023, "EPHEMERIS_TYPE": 0, "CLASSIFICATION_TYPE": "U", "NORAD_CAT_ID": 28220, "ELEMENT_SET_NO": 999, "REV_AT_EPOCH": 18195, "BSTAR": 0.00065181, "MEAN_MOTION_DOT": 0.00017746, "MEAN_MOTION_DDOT": 0}, "tle": {"line1": "1 28220U 04012A   25342.73364900  .00017746  00000+0  65181-3 0  9997", "line2": "2 28220  97.8934  44.0358 0005898 340.8993  19.2023 15.27982082181951"}}, "geometry": {"type": "Point", "coordinates": [-162.56608743904928, -73.08102265283335]}}, {"type": "Feature", "properties": {"norad_id": 28376, "name": "AURA", "group": "resource", "lat": 52.2527585225603, "lon": -77.4438853938693, "alt_km": 684.6329894135342, "timestamp": "2025-12-09T05:43:20.384182+00:00", "meta": {"OBJECT_NAME": "AURA", "OBJECT_ID": "2004-026A", "EPOCH": "2025-12-08T19:37:04.231776", "MEAN_MOTION": 14.60933887, "ECCENTRICITY": 0.0001169, "INCLINATION": 98.318, "RA_OF_ASC_NODE": 293.0259, "ARG_OF_PERICENTER": 93.2673, "MEAN_ANOMALY": 266.866, "EPHEMERIS_TYPE": 0, "CLASSIFICATION_TYPE": "U", "NORAD_CAT_ID": 28376, "ELEMENT_SET_NO": 999, "REV_AT_EPOCH": 13841, "BSTAR": 0.00044822, "MEAN_MOTION_DOT": 2.148e-05, "MEAN_MOTION_DDOT": 0}, "tle": {"line1": "1 28376U 04026A   25342.81741009  .00002148  00000+0  44822-3 0  9991", "line2": "2 28376  98.3180 293.0259 0001169  93.2673 266.8660 14.60933887138414"}}, "geometry": {"type": "Point", "coordinates": [-77.4438853938693, 52.2527585225603]}}]}